schoolName,School City,Business Name,Business Address,city,state,zip,lat,lon
Suriya Montessori Education Center,Tempe,A Perfect Fit Nanny Agency,,Tempe,AZ,85281,33.4122,-111.9521
Suriya Montessori Education Center,Tempe,Apex Balloons,21705 N 19th Ave,Tempe,AZ,85281,33.4122,-111.9521
Holdeman Elementary School,Tempe,Arizona Pool Covers,943 S 48th St,Tempe,AZ,85281,33.4101,-111.9593
Tempe Adventist Christian School,Tempe,ASU Art Museum,51 E 10th St,Tempe,AZ,85281,33.4106,-111.9497
Holdeman Elementary School,Tempe,Boulders On Broadway,530 W Broadway,Tempe,AZ,85281,33.4101,-111.9593
Noor Academy of Arizona,Tempe,Boulders On Broadway,530 W Broadway,Tempe,AZ,85282,33.4040,-111.9557
Noor Academy of Arizona,Tempe,Boulders On Broadway,530 W Broadway,Tempe,AZ,85282,33.4040,-111.9557
Noor Academy of Arizona,Tempe,Boulders On Broadway,530 W Broadway,Tempe,AZ,85282,33.4040,-111.9557
Noor Academy of Arizona,Tempe,Boulders On Broadway,530 W Broadway,Tempe,AZ,85282,33.4040,-111.9557
Tempe Adventist Christian School,Tempe,Boulders On Broadway,530 W Broadway,Tempe,AZ,85281,33.4106,-111.9497
Suriya Montessori Education Center,Tempe,Bright Ideas Childcare,2720 S Dorsey Ln,Tempe,AZ,85281,33.4122,-111.9521
Suriya Montessori Education Center,Tempe,Charming Pony Ranch Parties,23517 S 182nd St,Tempe,AZ,85281,33.4122,-111.9521
Banner Children's Academy,Tempe,Class Axe Throwing,1625 W University Dr,Tempe,AZ,85281,33.4176,-111.9617
Holdeman Elementary School,Tempe,Class Axe Throwing,1625 W University Dr,Tempe,AZ,85281,33.4101,-111.9593
Suriya Montessori Education Center,Tempe,Class Axe Throwing,1625 W University Dr,Tempe,AZ,85281,33.4122,-111.9521
Tempe Adventist Christian School,Tempe,Class Axe Throwing,1625 W University Dr,Tempe,AZ,85281,33.4106,-111.9497
Tempe Adventist Christian School,Tempe,Daley Park,1625 S College Ave,Tempe,AZ,85281,33.4106,-111.9497
Suriya Montessori Education Center,Tempe,Davis Circus of Illusion,6105 N Cattle Track Rd,Tempe,AZ,85281,33.4122,-111.9521
Banner Children's Academy,Tempe,Dynamic Escape Rooms,1797 W University Dr,Tempe,AZ,85281,33.4176,-111.9617
Holdeman Elementary School,Tempe,Dynamic Escape Rooms,1797 W University Dr,Tempe,AZ,85281,33.4101,-111.9593
Suriya Montessori Education Center,Tempe,Family Music,,Tempe,AZ,85281,33.4122,-111.9521
Banner Children's Academy,Tempe,Great Room Escape,1625 W University Dr,Tempe,AZ,85281,33.4176,-111.9617
Holdeman Elementary School,Tempe,Great Room Escape,1625 W University Dr,Tempe,AZ,85281,33.4101,-111.9593
Suriya Montessori Education Center,Tempe,Great Room Escape,1625 W University Dr,Tempe,AZ,85281,33.4122,-111.9521
Tempe Adventist Christian School,Tempe,Great Room Escape,1625 W University Dr,Tempe,AZ,85281,33.4106,-111.9497
Suriya Montessori Education Center,Tempe,JoyridesAZ,7142 E 1st St,Tempe,AZ,85281,33.4122,-111.9521
Suriya Montessori Education Center,Tempe,Kickback Tours,,Tempe,AZ,85281,33.4122,-111.9521
Banner Children's Academy,Tempe,Marriott Phoenix Resort Tempe at The Buttes,2000 W Westcourt Way,Tempe,AZ,85281,33.4176,-111.9617
Holdeman Elementary School,Tempe,Marriott Phoenix Resort Tempe at The Buttes,2000 W Westcourt Way,Tempe,AZ,85281,33.4101,-111.9593
Noor Academy of Arizona,Tempe,Marriott Phoenix Resort Tempe at The Buttes,2000 W Westcourt Way,Tempe,AZ,85282,33.4040,-111.9557
Noor Academy of Arizona,Tempe,Marriott Phoenix Resort Tempe at The Buttes,2000 W Westcourt Way,Tempe,AZ,85282,33.4040,-111.9557
Noor Academy of Arizona,Tempe,Marriott Phoenix Resort Tempe at The Buttes,2000 W Westcourt Way,Tempe,AZ,85282,33.4040,-111.9557
Noor Academy of Arizona,Tempe,Marriott Phoenix Resort Tempe at The Buttes,2000 W Westcourt Way,Tempe,AZ,85282,33.4040,-111.9557
Suriya Montessori Education Center,Tempe,Peppersauce Motorsports & Rentals,136 W 8th Ave,Tempe,AZ,85281,33.4122,-111.9521
Suriya Montessori Education Center,Tempe,Puzzling Adventures,730 N Mill Ave,Tempe,AZ,85281,33.4122,-111.9521
Holdeman Elementary School,Tempe,RainSoft of Arizona,1625 West University Dr,Tempe,AZ,85281,33.4101,-111.9593
Tempe Adventist Christian School,Tempe,RainSoft of Arizona,1625 West University Dr,Tempe,AZ,85281,33.4106,-111.9497
Holdeman Elementary School,Tempe,Rio Salado College,2323 W 14th St,Tempe,AZ,85281,33.4101,-111.9593
Suriya Montessori Education Center,Tempe,Salt River Rafting,,Tempe,AZ,85281,33.4122,-111.9521
Suriya Montessori Education Center,Tempe,Scottsdale Selfie Museum and Photography Studio,11111 North Scottsdale Rd,Tempe,AZ,85281,33.4122,-111.9521
Noor Academy of Arizona,Tempe,Stellar Adventures,3102 S Roosevelt St,Tempe,AZ,85282,33.4040,-111.9557
Noor Academy of Arizona,Tempe,Stellar Adventures,3102 S Roosevelt St,Tempe,AZ,85282,33.4040,-111.9557
Noor Academy of Arizona,Tempe,Stellar Adventures,3102 S Roosevelt St,Tempe,AZ,85282,33.4040,-111.9557
Noor Academy of Arizona,Tempe,Stellar Adventures,3102 S Roosevelt St,Tempe,AZ,85282,33.4040,-111.9557
Suriya Montessori Education Center,Tempe,Tempe Town Lake Boat Rentals,72 W Rio Salado Pkwy,Tempe,AZ,85281,33.4122,-111.9521
Banner Children's Academy,Tempe,The Sleuth Box,2400 W Medtronic Way,Tempe,AZ,85281,33.4176,-111.9617
Holdeman Elementary School,Tempe,The Sleuth Box,2400 W Medtronic Way,Tempe,AZ,85281,33.4101,-111.9593
Suriya Montessori Education Center,Tempe,The Zone Escape Rooms,414 S Mill Ave,Tempe,AZ,85281,33.4122,-111.9521
Suriya Montessori Education Center,Tempe,TWK Family Adventure Tours,87 W State Ave,Tempe,AZ,85281,33.4122,-111.9521
Suriya Montessori Education Center,Tempe,University Inn & Suites,902 South Mill Ave,Tempe,AZ,85281,33.4122,-111.9521
Tempe Adventist Christian School,Tempe,University Inn & Suites,902 South Mill Ave,Tempe,AZ,85281,33.4106,-111.9497
Suriya Montessori Education Center,Tempe,Western Destinations,21630 N 9th Ave,Tempe,AZ,85281,33.4122,-111.9521
Suriya Montessori Education Center,Tempe,Whiz Kidz Playland,3233 E Chandler Blvd,Tempe,AZ,85281,33.4122,-111.9521
Holdeman Elementary School,Tempe,World of Illumination,2200 W Alameda Dr,Tempe,AZ,85281,33.4101,-111.9593
Noor Academy of Arizona,Tempe,World of Illumination,2200 W Alameda Dr,Tempe,AZ,85282,33.4040,-111.9557
Noor Academy of Arizona,Tempe,World of Illumination,2200 W Alameda Dr,Tempe,AZ,85282,33.4040,-111.9557
Noor Academy of Arizona,Tempe,World of Illumination,2200 W Alameda Dr,Tempe,AZ,85282,33.4040,-111.9557
Noor Academy of Arizona,Tempe,World of Illumination,2200 W Alameda Dr,Tempe,AZ,85282,33.4040,-111.9557